NORAD_CAT_ID,OBJECT_NAME,OBJECT_TYPE,EPOCH,MEAN_MOTION,ECCENTRICITY,INCLINATION,RA_OF_ASC_NODE,ARG_OF_PERICENTER,MEAN_ANOMALY,BSTAR,MEAN_MOTION_DOT,MEAN_MOTION_DDOT,TLE_LINE0,TLE_LINE1,TLE_LINE2,SEMIMAJOR_AXIS,PERIOD,APOGEE,PERIGEE,DECAYED
53616.0,STARLINK-4605,PAYLOAD,2023-05-04 12:41:40,15.08847325,0.0001067,53.217,213.5864,91.51,268.6015,0.00023313,3.425e-05,0.0,0 STARLINK-4605,1 53616U 22104AE  23124.52893544  .00003425  00000-0  23313-3 0  9991,2 53616  53.2170 213.5864 0001067  91.5100 268.6015 15.08847325 38855,6917.858,95.437,540.461,538.985,0.0
53616.0,STARLINK-4605,PAYLOAD,2023-05-04 15:52:26,15.0884943,0.000111,53.2172,212.9917,95.139,264.9729,0.00029694,4.442e-05,0.0,0 STARLINK-4605,1 53616U 22104AE  23124.66141461  .00004442  00000-0  29694-3 0  9998,2 53616  53.2172 212.9917 0001110  95.1390 264.9729 15.08849430 38871,6917.852,95.437,540.484,538.949,0.0
53616.0,STARLINK-4605,PAYLOAD,2023-05-05 06:10:55,15.08837107,0.0001057,53.2166,210.3142,90.5284,269.5829,0.00016659,2.364e-05,0.0,0 STARLINK-4605,1 53616U 22104AE  23125.25758166  .00002364  00000-0  16659-3 0  9998,2 53616  53.2166 210.3142 0001057  90.5284 269.5829 15.08837107 38282,6917.889,95.438,540.485,539.023,0.0
53616.0,STARLINK-4605,PAYLOAD,2023-05-05 15:43:13,15.08842137,0.0001065,53.2166,208.5308,86.2031,273.9083,0.00026208,3.886e-05,0.0,0 STARLINK-4605,1 53616U 22104AE  23125.65502078  .00003886  00000-0  26208-3 0  9992,2 53616  53.2166 208.5308 0001065  86.2031 273.9083 15.08842137 39029,6917.874,95.437,540.476,539.002,0.0
53616.0,STARLINK-4605,PAYLOAD,2023-05-06 12:23:14,15.08850573,0.0001146,53.2149,204.6628,72.2607,287.851,0.00035122,5.308e-05,0.0,0 STARLINK-4605,1 53616U 22104AE  23126.51614026  .00005308  00000-0  35122-3 0  9991,2 53616  53.2149 204.6628 0001146  72.2607 287.8510 15.08850573 39152,6917.848,95.437,540.506,538.92,0.0
53616.0,STARLINK-4605,PAYLOAD,2023-05-06 21:55:33,15.08854002,0.0001161,53.2145,202.8787,77.7165,282.3957,0.00054882,8.461e-05,0.0,0 STARLINK-4605,1 53616U 22104AE  23126.91357905  .00008461  00000-0  54882-3 0  9992,2 53616  53.2145 202.8787 0001161  77.7165 282.3957 15.08854002 38537,6917.838,95.437,540.506,538.899,0.0
53616.0,STARLINK-4605,PAYLOAD,2023-05-07 12:14:00,15.08861838,0.0001219,53.2145,200.2027,78.5699,281.543,0.00054037,8.328e-05,0.0,0 STARLINK-4605,1 53616U 22104AE  23127.50973301  .00008328  00000-0  54037-3 0  9996,2 53616  53.2145 200.2027 0001219  78.5699 281.5430 15.08861838 39309,6917.814,95.436,540.522,538.835,0.0
53616.0,STARLINK-4605,PAYLOAD,2023-05-07 21:46:19,15.08850464,8.42e-05,53.2152,198.4141,93.3131,266.7958,0.00019265,2.78e-05,0.0,0 STARLINK-4605,1 53616U 22104AE  23127.90717097  .00002780  00000-0  19265-3 0  9998,2 53616  53.2152 198.4141 0000842  93.3131 266.7958 15.08850464 38682,6917.848,95.437,540.296,539.131,0.0
53616.0,STARLINK-4605,PAYLOAD,2023-05-08 12:04:48,15.08834484,0.0001369,53.214,195.742,81.5839,278.5309,-0.00012487,-2.274e-05,0.0,0 STARLINK-4605,1 53616U 22104AE  23128.50334089 -.00002274  00000-0 -12487-3 0  9990,2 53616  53.2140 195.7420 0001369  81.5839 278.5309 15.08834484 38773,6917.897,95.438,540.709,538.815,0.0
53616.0,STARLINK-4605,PAYLOAD,2023-05-08 13:40:11,15.08837395,0.000135,53.2142,195.4448,82.2553,277.8592,-5.2474e-05,-1.123e-05,0.0,0 STARLINK-4605,1 53616U 22104AE  23128.56958007 -.00001123  00000-0 -52474-4 0  9991,2 53616  53.2142 195.4448 0001350  82.2553 277.8592 15.08837395 39460,6917.888,95.438,540.687,538.819,0.0
53616.0,STARLINK-4605,PAYLOAD,2023-05-09 10:20:12,15.08842983,0.0001364,53.2138,191.5788,80.1812,279.9334,0.00017903,2.563e-05,0.0,0 STARLINK-4605,1 53616U 22104AE  23129.43070101  .00002563  00000-0  17903-3 0  9992,2 53616  53.2138 191.5788 0001364  80.1812 279.9334 15.08842983 39599,6917.871,95.437,540.68,538.793,0.0
53616.0,STARLINK-4605,PAYLOAD,2023-05-10 10:11:00,15.08841576,0.0001417,53.214,187.1194,86.3139,273.8015,0.00026771,3.975e-05,0.0,0 STARLINK-4605,1 53616U 22104AE  23130.42430629  .00003975  00000-0  26771-3 0  9999,2 53616  53.2140 187.1194 0001417  86.3139 273.8015 15.08841576 39746,6917.876,95.437,540.721,538.76,0.0
53616.0,STARLINK-4605,PAYLOAD,2023-05-10 21:18:42,15.08840092,0.0001439,53.2139,185.0381,87.1039,273.0118,0.00022321,3.266e-05,0.0,0 STARLINK-4605,1 53616U 22104AE  23130.88798690  .00003266  00000-0  22321-3 0  9994,2 53616  53.2139 185.0381 0001439  87.1039 273.0118 15.08840092 39817,6917.88,95.438,540.741,538.75,0.0
53616.0,STARLINK-4605,PAYLOAD,2023-05-11 08:26:23,15.08847245,0.0001404,53.2137,182.9552,78.5863,281.5287,0.00023055,3.384e-05,0.0,0 STARLINK-4605,1 53616U 22104AE  23131.35166412  .00003384  00000-0  23055-3 0  9994,2 53616  53.2137 182.9552 0001404  78.5863 281.5287 15.08847245 39887,6917.858,95.437,540.695,538.752,0.0
53616.0,STARLINK-4605,PAYLOAD,2023-05-11 22:44:51,15.08844256,0.0001298,53.2142,180.2801,79.3875,280.7264,0.00018873,2.717e-05,0.0,0 STARLINK-4605,1 53616U 22104AE  23131.94782386  .00002717  00000-0  18873-3 0  9994,2 53616  53.2142 180.2801 0001298  79.3875 280.7264 15.08844256 39294,6917.867,95.437,540.63,538.834,0.0
53616.0,STARLINK-4605,PAYLOAD,2023-05-12 19:24:52,15.08838424,0.0001426,53.2152,176.415,119.5613,240.5522,5.4841e-07,-2.79e-06,0.0,0 STARLINK-4605,1 53616U 22104AE  23132.80894580 -.00000279  00000-0  54841-6 0  9990,2 53616  53.2152 176.4150 0001426 119.5613 240.5522 15.08838424 39425,6917.885,95.438,540.737,538.764,0.0
53616.0,STARLINK-4605,PAYLOAD,2023-05-13 11:18:44,15.08829044,0.0001301,53.2145,173.44,98.2689,261.8451,0.00053019,8.158e-05,0.0,0 STARLINK-4605,1 53616U 22104AE  23133.47135220  .00008158  00000-0  53019-3 0  9999,2 53616  53.2145 173.4400 0001301  98.2689 261.8451 15.08829044 39526,6917.914,95.438,540.679,538.879,0.0
53616.0,STARLINK-4605,PAYLOAD,2023-05-13 19:15:39,15.08840222,0.0001171,53.2142,171.9526,102.3856,257.7268,-0.00012557,-2.286e-05,0.0,0 STARLINK-4605,1 53616U 22104AE  23133.80254487 -.00002286  00000-0 -12557-3 0  9993,2 53616  53.2142 171.9526 0001171 102.3856 257.7268 15.08840222 39579,6917.88,95.438,540.555,538.935,0.0
53616.0,STARLINK-4605,PAYLOAD,2023-05-14 06:23:22,15.08825277,0.0001207,53.2146,169.8714,86.2287,273.8843,0.00012859,1.758e-05,0.0,0 STARLINK-4605,1 53616U 22104AE  23134.26623657  .00001758  00000-0  12859-3 0  9999,2 53616  53.2146 169.8714 0001207  86.2287 273.8843 15.08825277 39645,6917.925,95.438,540.625,538.955,0.0
53616.0,STARLINK-4605,PAYLOAD,2023-05-14 11:09:32,15.08826415,0.0001215,53.2152,168.9793,87.7359,272.3773,0.00015572,2.19e-05,0.0,0 STARLINK-4605,1 53616U 22104AE  23134.46495744  .00002190  00000-0  15572-3 0  9991,2 53616  53.2152 168.9793 0001215  87.7359 272.3773 15.08826415 40355,6917.922,95.438,540.627,538.946,0.0
53616.0,STARLINK-4605,PAYLOAD,2023-05-14 19:06:27,15.08834461,0.0001242,53.2153,167.4922,89.613,270.5005,7.8297e-05,9.58e-06,0.0,0 STARLINK-4605,1 53616U 22104AE  23134.79615525  .00000958  00000-0  78297-4 0  9992,2 53616  53.2153 167.4922 0001242  89.6130 270.5005 15.08834461 40406,6917.897,95.438,540.622,538.903,0.0
53616.0,STARLINK-4605,PAYLOAD,2023-05-14 23:52:37,15.08837943,0.0001257,53.2153,166.6003,90.916,269.1976,6.2601e-05,7.09e-06,0.0,0 STARLINK-4605,1 53616U 22104AE  23134.99487390  .00000709  00000-0  62601-4 0  9997,2 53616  53.2153 166.6003 0001257  90.9160 269.1976 15.08837943 39756,6917.887,95.438,540.621,538.882,0.0
53616.0,STARLINK-4605,PAYLOAD,2023-05-15 11:00:18,15.08843183,0.0001412,53.2154,164.5183,97.1507,262.9646,3.8045e-05,3.18e-06,0.0,0 STARLINK-4605,1 53616U 22104AE  23135.45855166  .00000318  00000-0  38045-4 0  9990,2 53616  53.2154 164.5183 0001412  97.1507 262.9646 15.08843183 40503,6917.871,95.437,540.712,538.759,0.0
53616.0,STARLINK-4605,PAYLOAD,2023-05-15 18:57:14,15.08838601,0.000126,53.2155,163.0314,91.9678,268.1458,8.1158e-05,1.004e-05,0.0,0 STARLINK-4605,1 53616U 22104AE  23135.78975366  .00001004  00000-0  81158-4 0  9997,2 53616  53.2155 163.0314 0001260  91.9678 268.1458 15.08838601 40559,6917.885,95.438,540.621,538.878,0.0
53616.0,STARLINK-4605,PAYLOAD,2023-05-16 06:04:56,15.08837359,0.0001254,53.2154,160.9496,92.6472,267.4664,0.00013969,1.936e-05,0.0,0 STARLINK-4605,1 53616U 22104AE  23136.25343472  .00001936  00000-0  13969-3 0  9995,2 53616  53.2154 160.9496 0001254  92.6472 267.4664 15.08837359 39949,6917.888,95.438,540.621,538.886,0.0
53616.0,STARLINK-4605,PAYLOAD,2023-05-16 09:15:42,15.08840039,0.0001245,53.2154,160.3545,92.3554,267.758,0.00012756,1.743e-05,0.0,0 STARLINK-4605,1 53616U 22104AE  23136.38591370  .00001743  00000-0  12756-3 0  9990,2 53616  53.2154 160.3545 0001245  92.3554 267.7580 15.08840039 40644,6917.88,95.438,540.607,538.884,0.0
53616.0,STARLINK-4605,PAYLOAD,2023-05-17 07:31:06,15.08841891,0.0001254,53.2152,156.1913,91.671,268.4426,7.2358e-05,8.64e-06,0.0,0 STARLINK-4605,1 53616U 22104AE  23137.31327296  .00000864  00000-0  72358-4 0  9996,2 53616  53.2152 156.1913 0001254  91.6710 268.4426 15.08841891 40105,6917.875,95.437,540.607,538.872,0.0
53616.0,STARLINK-4605,PAYLOAD,2023-05-17 18:38:48,15.08842731,0.0001237,53.215,154.1093,90.9076,269.2058,5.9819e-05,6.64e-06,0.0,0 STARLINK-4605,1 53616U 22104AE  23137.77695181  .00000664  00000-0  59819-4 0  9992,2 53616  53.2150 154.1093 0001237  90.9076 269.2058 15.08842731 40854,6917.872,95.437,540.593,538.881,0.0
53616.0,STARLINK-4605,PAYLOAD,2023-05-18 12:08:02,15.08843516,0.0001256,53.2152,150.8384,91.081,269.0326,5.434e-05,5.77e-06,0.0,0 STARLINK-4605,1 53616U 22104AE  23138.50558978  .00000577  00000-0  54340-4 0  9993,2 53616  53.2152 150.8384 0001256  91.0810 269.0326 15.08843516 40961,6917.87,95.437,540.604,538.866,0.0
53616.0,STARLINK-4605,PAYLOAD,2023-05-18 18:29:35,15.08839743,0.0001304,53.2154,149.6489,88.1738,271.9404,2.9461e-05,1.81e-06,0.0,0 STARLINK-4605,1 53616U 22104AE  23138.77055261  .00000181  00000-0  29461-4 0  9996,2 53616  53.2154 149.6489 0001304  88.1738 271.9404 15.08839743 40321,6917.881,95.438,540.648,538.844,0.0
